{
"type": "FeatureCollection",
"name": "riau_kabkot_dissolved",
"crs": { "type": "name", "properties": { "name": "urn:ogc:def:crs:OGC:1.3:CRS84" } },
"features": [
{ "type": "Feature", "properties": { "wilayah": "Bengkalis", "kode_wilayah": "1408" }, "geometry": { "type": "MultiPolygon", "coordinates": [ [ [ [ 100.988321927000072, 1.298087172000066 ], [ 100.973445387000083, 1.348765576000062 ], [ 101.01412266400007, 1.349525046000053 ], [ 101.177261194000039, 1.451901016000022 ], [ 101.242699526000081, 1.480921091000027 ], [ 101.265755372000058, 1.465228310000043 ], [ 101.317185833000053, 1.474403333000055 ], [ 101.435643341000059, 1.447194944000046 ], [ 101.449325242000043, 1.494308271000023 ], [ 101.506643221000047, 1.493310278000024 ], [ 101.528085401000055, 1.595554337000067 ], [ 101.598044483000081, 1.600172017000034 ], [ 101.718530556000076, 1.622686111000064 ], [ 101.724989394000033, 1.671377905000043 ], [ 101.761786258000086, 1.659544442000026 ], [ 101.873278637000055, 1.561513689000037 ], [ 102.107181710000077, 1.392257455000049 ], [ 102.158565770000052, 1.361964296000053 ], [ 102.150519409000083, 1.271332262000044 ], [ 102.168570659000068, 1.228508617000045 ], [ 102.09463, 1.120367 ], [ 102.037591, 1.087397 ], [ 102.020256, 1.032249 ], [ 101.978956290000042, 0.980016163000073 ], [ 101.910111111000049, 1.089083333000076 ], [ 101.887236998000049, 1.176158994000048 ], [ 101.856842, 1.201519 ], [ 101.712750018000065, 1.211777820000066 ], [ 101.598997532000055, 1.034027184000024 ], [ 101.547666697000068, 0.92194448500004 ], [ 101.455583363000073, 0.987145891000068 ], [ 101.455465577000041, 1.004138178000062 ], [ 101.339109820000033, 1.028455004000023 ], [ 101.290965479000079, 1.050055416000021 ], [ 101.23132176200005, 1.006782403000045 ], [ 101.192386940000063, 0.999641018000034 ], [ 101.148805624000033, 1.018626030000064 ], [ 101.078857179000067, 1.00296555500006 ], [ 100.984027778000041, 1.082027778000054 ], [ 100.988321927000072, 1.298087172000066 ] ] ], [ [ [ 102.001842637000038, 1.595719290000034 ], [ 102.064694492000058, 1.604153813000039 ], [ 102.185964862000048, 1.569030318000046 ], [ 102.334879554000054, 1.551521526000045 ], [ 102.459843629000034, 1.518409218000045 ], [ 102.496160659000054, 1.468941980000068 ], [ 102.488666890000047, 1.44329069500003 ], [ 102.508521951000034, 1.262375733000056 ], [ 102.496003312000084, 1.253256431000068 ], [ 102.398424446000035, 1.323168716000055 ], [ 102.335664577000045, 1.391950808000047 ], [ 102.285656987000038, 1.432963393000023 ], [ 102.182242277000057, 1.438167882000073 ], [ 102.119022705000077, 1.459927470000025 ], [ 102.026361264000059, 1.539422018000039 ], [ 102.001842637000038, 1.595719290000034 ] ] ], [ [ [ 101.560699039000042, 1.69533208200005 ], [ 101.453749842000036, 1.72674926600007 ], [ 101.416498655000055, 1.837606834000042 ], [ 101.383900146000087, 1.906384927000033 ], [ 101.397380263000059, 2.004432502000043 ], [ 101.438802115000044, 2.052451185000052 ], [ 101.47420315100004, 2.065707117000045 ], [ 101.525072454000053, 2.03576417000005 ], [ 101.56360909600005, 2.043199468000068 ], [ 101.586177536000037, 2.085776245000034 ], [ 101.655821636000042, 2.124848419000045 ], [ 101.704188455000065, 2.096518564000064 ], [ 101.778893681000056, 1.98206678300005 ], [ 101.785082817000045, 1.941590427000051 ], [ 101.754238704000045, 1.892742532000057 ], [ 101.734989362000078, 1.771000070000071 ], [ 101.687310400000058, 1.73516014300003 ], [ 101.619070092000072, 1.690091033000044 ], [ 101.560699039000042, 1.69533208200005 ] ] ] ] } },
{ "type": "Feature", "properties": { "wilayah": "Dumai", "kode_wilayah": "1473" }, "geometry": { "type": "Polygon", "coordinates": [ [ [ 101.317185833000053, 1.474403333000055 ], [ 101.435643341000059, 1.447194944000046 ], [ 101.449325242000043, 1.494308271000023 ], [ 101.506643221000047, 1.493310278000024 ], [ 101.528085401000055, 1.595554337000067 ], [ 101.598044483000081, 1.600172017000034 ], [ 101.718530556000076, 1.622686111000064 ], [ 101.724989394000033, 1.671377905000043 ], [ 101.664664483000081, 1.664669606000075 ], [ 101.615542132000087, 1.642203423000069 ], [ 101.528338827000084, 1.646967466000035 ], [ 101.472790517000078, 1.685094919000051 ], [ 101.430902486000036, 1.688797360000024 ], [ 101.392960413000083, 1.713388532000067 ], [ 101.35559732300004, 1.78583181700003 ], [ 101.363488392000079, 1.831408391000025 ], [ 101.335918244000084, 1.891047549000064 ], [ 101.303211411000063, 2.042178974000024 ], [ 101.266956226000048, 2.080380593000029 ], [ 101.182457777000081, 2.12387231200006 ], [ 101.065609300000062, 2.232476044000066 ], [ 101.039147280000066, 2.220152760000076 ], [ 101.011138920000064, 2.134222200000067 ], [ 101.016111240000043, 2.080527750000044 ], [ 101.059311240000056, 1.951713900000072 ], [ 101.130555600000037, 1.835583300000053 ], [ 101.199194280000086, 1.754666640000039 ], [ 101.290372200000036, 1.599466680000035 ], [ 101.335388889000058, 1.496138889000065 ], [ 101.317185833000053, 1.474403333000055 ] ] ] } },
{ "type": "Feature", "properties": { "wilayah": "Indragiri Hilir", "kode_wilayah": "1403" }, "geometry": { "type": "Polygon", "coordinates": [ [ [ 102.643888684000046, -1.126943083999947 ], [ 102.781592052000065, -1.023374246999936 ], [ 102.783872478000035, -0.981763465999961 ], [ 102.860000029000048, -0.927777772999946 ], [ 102.927777771000081, -0.866111087999968 ], [ 103.00361115000004, -0.754722215999948 ], [ 103.08083332800004, -0.76194449299993 ], [ 103.111832952000043, -0.746610969999949 ], [ 103.208249968000075, -0.757056027999965 ], [ 103.239466939000067, -0.770599942999979 ], [ 103.302544853000086, -0.765531119999935 ], [ 103.352777997000032, -0.799166985999932 ], [ 103.431249823000087, -0.778118438999968 ], [ 103.441138158000058, -0.731699879999951 ], [ 103.406619008000064, -0.647484475999931 ], [ 103.430955233000077, -0.617869884999948 ], [ 103.437811748000058, -0.538570696999955 ], [ 103.467478250000056, -0.50600116499993 ], [ 103.506305434000069, -0.51657570499998 ], [ 103.543712370000037, -0.503540907999934 ], [ 103.598418476000063, -0.448706658999924 ], [ 103.584108639000078, -0.400894974999972 ], [ 103.696534688000042, -0.355892313999959 ], [ 103.778220846000067, -0.346342347999951 ], [ 103.759621910000078, -0.300399996999943 ], [ 103.708903073000045, -0.256422197999939 ], [ 103.663249892000067, -0.250869487999978 ], [ 103.639695972000084, -0.225357180999936 ], [ 103.511526093000043, -0.20161984899994 ], [ 103.471287063000034, -0.209642547999977 ], [ 103.455590590000043, -0.183764194999981 ], [ 103.493728041000054, -0.158056534999957 ], [ 103.473525651000045, -0.102077976999965 ], [ 103.580836885000053, -0.062257399999964 ], [ 103.586979296000038, -0.022326908999958 ], [ 103.614095159000044, -0.006117755999981 ], [ 103.684994690000053, -0.027658498999926 ], [ 103.810436866000032, 0.008620780000058 ], [ 103.774839025000063, 0.098852611000041 ], [ 103.76527978300004, 0.18302581100005 ], [ 103.742208232000053, 0.246888672000068 ], [ 103.681217537000066, 0.323071839000022 ], [ 103.602871814000082, 0.345793811000021 ], [ 103.580292232000033, 0.397723696000071 ], [ 103.53467346900004, 0.437866979000034 ], [ 103.487944829000071, 0.459978554000031 ], [ 103.412481275000061, 0.522048609000024 ], [ 103.347360203000051, 0.538497455000027 ], [ 103.351605611000082, 0.484766556000068 ], [ 103.26911894400007, 0.437991056000044 ], [ 103.211369970000078, 0.36876055700003 ], [ 103.073559333000048, 0.313370417000044 ], [ 102.897922197000071, 0.185932181000055 ], [ 102.787365833000081, 0.118334584000024 ], [ 102.716928913000061, 0.09350472400007 ], [ 102.716845136000074, -0.163883847999955 ], [ 102.689896364000049, -0.162987261999945 ], [ 102.690330713000037, -0.246033163999925 ], [ 102.716849563000039, -0.244718406999937 ], [ 102.716814720000059, -0.454336152999929 ], [ 102.68637003300006, -0.512558215999945 ], [ 102.690644463000069, -0.652939929999945 ], [ 102.650863391000087, -0.681093259999955 ], [ 102.637370026000042, -0.744594808999977 ], [ 102.676612338000041, -0.777666969999927 ], [ 102.628822393000064, -0.817844218999937 ], [ 102.574493828000072, -0.88213742399995 ], [ 102.56426801300006, -0.93692731799996 ], [ 102.574641694000036, -1.006809221999958 ], [ 102.601365685000076, -1.042518434999977 ], [ 102.606666646000065, -1.097777758999939 ], [ 102.643888684000046, -1.126943083999947 ] ] ] } },
{ "type": "Feature", "properties": { "wilayah": "Indragiri Hulu", "kode_wilayah": "1402" }, "geometry": { "type": "Polygon", "coordinates": [ [ [ 101.926666689000058, -0.915277745999958 ], [ 101.966486821000046, -0.913879411999972 ], [ 101.986111116000075, -0.881111130999955 ], [ 102.065615309000066, -0.889481294999939 ], [ 102.125978485000076, -0.921113289999937 ], [ 102.145680869000046, -0.899668116999976 ], [ 102.215542447000075, -0.945395800999961 ], [ 102.278276549000054, -0.915819458999977 ], [ 102.307771814000034, -0.921285284999954 ], [ 102.323475831000053, -0.961865457999977 ], [ 102.383055556000045, -0.993611137999949 ], [ 102.371487013000035, -1.030201725999973 ], [ 102.441311019000068, -1.031344684999965 ], [ 102.474183675000063, -1.070624324999926 ], [ 102.549781375000066, -1.104427946999976 ], [ 102.606666646000065, -1.097777758999939 ], [ 102.601365685000076, -1.042518434999977 ], [ 102.574641694000036, -1.006809221999958 ], [ 102.56426801300006, -0.93692731799996 ], [ 102.574493828000072, -0.88213742399995 ], [ 102.628822393000064, -0.817844218999937 ], [ 102.676612338000041, -0.777666969999927 ], [ 102.637370026000042, -0.744594808999977 ], [ 102.650863391000087, -0.681093259999955 ], [ 102.690644463000069, -0.652939929999945 ], [ 102.68637003300006, -0.512558215999945 ], [ 102.716814720000059, -0.454336152999929 ], [ 102.716849563000039, -0.244718406999937 ], [ 102.690330713000037, -0.246033163999925 ], [ 102.689896364000049, -0.162987261999945 ], [ 102.716845136000074, -0.163883847999955 ], [ 102.716928913000061, 0.09350472400007 ], [ 102.600916560000087, 0.089277750000065 ], [ 102.533472360000076, 0.06819444000007 ], [ 102.467416680000042, -0.117027809999968 ], [ 102.414666600000032, -0.165527819999966 ], [ 102.214637913000047, -0.16537234599997 ], [ 102.175089120000052, -0.247707989999924 ], [ 102.143220445000054, -0.287596439999959 ], [ 102.08723976400006, -0.288311651999948 ], [ 102.048030458000085, -0.313969437999958 ], [ 101.985324840000033, -0.394491689999938 ], [ 101.898709722000035, -0.386765277999928 ], [ 101.913888889000077, -0.39972222199998 ], [ 101.912277778000032, -0.533555555999953 ], [ 101.83117, -0.571476 ], [ 101.827136, -0.619683 ], [ 101.788381205000064, -0.659519254999964 ], [ 101.794704874000047, -0.739779193999937 ], [ 101.777555695000046, -0.788732901999936 ], [ 101.821238665000067, -0.84980791199996 ], [ 101.840180462000035, -0.821515546999933 ], [ 101.896513605000052, -0.844498832999932 ], [ 101.926666689000058, -0.915277745999958 ] ] ] } },
{ "type": "Feature", "properties": { "wilayah": "Kampar", "kode_wilayah": "1406" }, "geometry": { "type": "Polygon", "coordinates": [ [ [ 101.041388889000075, -0.376111110999943 ], [ 101.100938664000068, -0.379084642999942 ], [ 101.140413796000075, -0.333205663999934 ], [ 101.134786900000051, -0.298599832999969 ], [ 101.152715446000059, -0.238502874999938 ], [ 101.197203582000043, -0.182247358999973 ], [ 101.196284645000048, -0.121463580999944 ], [ 101.242752462000055, -0.056505493999964 ], [ 101.26907579300007, 0.00969038300002 ], [ 101.296389473000033, -0.049742823999964 ], [ 101.349014685000043, -0.104211765999935 ], [ 101.391408631000047, -0.09964189699997 ], [ 101.457662145000086, -0.067192882999962 ], [ 101.518901414000084, -0.099576028999934 ], [ 101.515135389000079, -0.064031582999974 ], [ 101.54669199600005, -0.043654517999926 ], [ 101.522272617000056, -0.004992220999952 ], [ 101.495611773000064, 0.07655644700003 ], [ 101.514793290000057, 0.109969875000047 ], [ 101.567568300000062, 0.130883611000058 ], [ 101.565626200000054, 0.184735722000028 ], [ 101.584788891000073, 0.202183328000046 ], [ 101.585033964000047, 0.268114001000072 ], [ 101.665060848000053, 0.278251392000072 ], [ 101.666805606000082, 0.316252461000033 ], [ 101.620705791000034, 0.339667431000066 ], [ 101.592141773000037, 0.414204926000025 ], [ 101.589391951000039, 0.464079681000044 ], [ 101.547556392000047, 0.43466002100007 ], [ 101.490967976000036, 0.45001529700005 ], [ 101.419615157000067, 0.425681115000032 ], [ 101.367498686000033, 0.441896210000039 ], [ 101.33224875500008, 0.47661234100002 ], [ 101.357423340000082, 0.510097403000032 ], [ 101.35719061900005, 0.557415892000051 ], [ 101.324649228000055, 0.600370171000066 ], [ 101.379840629000057, 0.662181052000051 ], [ 101.322599628000034, 0.695952205000026 ], [ 101.334962663000056, 0.797573150000062 ], [ 101.208548384000039, 0.854231911000056 ], [ 101.145142475000057, 0.892683200000022 ], [ 101.061953010000082, 0.92458308700003 ], [ 100.99323, 0.968265556000063 ], [ 100.83493049100008, 0.940970918000062 ], [ 100.760187772000052, 0.854892008000036 ], [ 100.744991647000063, 0.869792148000045 ], [ 100.703631880000046, 0.781463278000047 ], [ 100.604104456000073, 0.704711042000042 ], [ 100.657974904000071, 0.606057969000062 ], [ 100.75786424100005, 0.589467267000032 ], [ 100.780631288000052, 0.550774387000047 ], [ 100.863868399000069, 0.528715162000026 ], [ 100.863704250000069, 0.465447781000023 ], [ 100.840483273000075, 0.459916953000061 ], [ 100.841349316000048, 0.39226988300004 ], [ 100.784502553000038, 0.403816282000037 ], [ 100.719496873000082, 0.389917872000069 ], [ 100.575493999000059, 0.525589273000037 ], [ 100.542420545000084, 0.501925481000058 ], [ 100.550992930000064, 0.470837295000024 ], [ 100.517897314000038, 0.43995325700007 ], [ 100.49388022100004, 0.453623847000074 ], [ 100.445833309000079, 0.417777776000037 ], [ 100.434108771000069, 0.379121926000039 ], [ 100.467057826000087, 0.314612473000068 ], [ 100.559017811000047, 0.304660428000034 ], [ 100.587155659000075, 0.253525571000068 ], [ 100.64727773900006, 0.203333352000072 ], [ 100.684547, 0.201642 ], [ 100.70137, 0.238489 ], [ 100.814605913000037, 0.26053433200002 ], [ 100.843033649000063, 0.223348074000057 ], [ 100.841780200000073, 0.146201 ], [ 100.796108798000034, 0.127311517000066 ], [ 100.778902537000079, 0.082668750000039 ], [ 100.830708345000062, 0.06736078900002 ], [ 100.84158694100006, -0.006554441999924 ], [ 100.804504816000076, -0.03390817199994 ], [ 100.763826970000082, -0.022237837999967 ], [ 100.745777778000047, -0.051775 ], [ 100.774290995000058, -0.213113044999943 ], [ 100.808827162000057, -0.269843573999935 ], [ 100.837913889000049, -0.284377777999964 ], [ 100.848059348000049, -0.342773454999929 ], [ 100.932278969000038, -0.315742002999968 ], [ 100.992222222000066, -0.315833332999944 ], [ 101.031944444000032, -0.345277777999968 ], [ 101.041388889000075, -0.376111110999943 ] ] ] } },
{ "type": "Feature", "properties": { "wilayah": "Kepulauan Meranti", "kode_wilayah": "1410" }, "geometry": { "type": "MultiPolygon", "coordinates": [ [ [ [ 103.076148621000073, 0.742948532000071 ], [ 103.097758528000043, 0.798841014000061 ], [ 103.114190739000037, 0.738973068000064 ], [ 103.076148621000073, 0.742948532000071 ] ] ], [ [ [ 102.994748291000064, 0.689222233000066 ], [ 102.932509391000053, 0.764873332000036 ], [ 102.857054437000045, 0.793798844000037 ], [ 102.654231057000061, 0.789220863000025 ], [ 102.580651836000072, 0.766247587000066 ], [ 102.50050529400005, 0.791028187000052 ], [ 102.436714466000069, 0.825834564000047 ], [ 102.410747647000051, 0.89195507300002 ], [ 102.447461626000063, 0.936698374000059 ], [ 102.474761134000062, 0.927823971000066 ], [ 102.513319561295575, 0.952603151583798 ], [ 102.499876262000043, 0.950840199000027 ], [ 102.45986780000004, 1.064813168000057 ], [ 102.479721625000082, 1.123283017000063 ], [ 102.536658659000068, 1.129787685000053 ], [ 102.613760865000074, 1.046873060000053 ], [ 102.607324694000056, 1.005018999000072 ], [ 102.597945119230815, 0.999706889172465 ], [ 102.645318415000077, 0.991235671000027 ], [ 102.734027204000085, 1.022370290000026 ], [ 102.801165607000087, 0.977709632000028 ], [ 102.876625851000085, 0.95321683800006 ], [ 102.930989493000084, 0.898620384000026 ], [ 103.046220126000037, 0.824588063000022 ], [ 103.050335030000042, 0.754725430000065 ], [ 103.048905232000038, 0.721079589000055 ], [ 102.994748291000064, 0.689222233000066 ] ] ], [ [ [ 102.886524009000084, 0.965751540000042 ], [ 102.809690111000066, 0.990470334000065 ], [ 102.790604377000079, 1.01873355400005 ], [ 102.726977343000044, 1.039516139000057 ], [ 102.648129470000072, 1.009011987000065 ], [ 102.667515479000087, 1.083147334000046 ], [ 102.688957823000067, 1.120189768000046 ], [ 102.73699694000004, 1.154915414000072 ], [ 102.770299180000052, 1.159424087000048 ], [ 102.89319751000005, 1.125214431000074 ], [ 102.981567603000087, 1.090282083000034 ], [ 103.07025857800005, 0.998836175000065 ], [ 103.153239388000088, 0.894986495000069 ], [ 103.152526556000055, 0.848474934000023 ], [ 103.086579967000034, 0.82909048700003 ], [ 102.947885441000039, 0.910750023000048 ], [ 102.886524009000084, 0.965751540000042 ] ] ], [ [ [ 102.276053499000056, 1.005502209000042 ], [ 102.236493916000086, 1.10145368600007 ], [ 102.246068326000056, 1.194735263000041 ], [ 102.206017277000058, 1.27728079600007 ], [ 102.227777684000046, 1.330354132000025 ], [ 102.213527262000071, 1.414169161000075 ], [ 102.292082243000038, 1.412242556000024 ], [ 102.373823605000041, 1.325821726000072 ], [ 102.484771920000071, 1.238332921000051 ], [ 102.438569194000081, 1.071224536000045 ], [ 102.481853801000057, 0.957957795000027 ], [ 102.437152475000062, 0.948189426000056 ], [ 102.392774818000078, 0.913371582000025 ], [ 102.276053499000056, 1.005502209000042 ] ] ] ] } },
{ "type": "Feature", "properties": { "wilayah": "Kuantan Singingi", "kode_wilayah": "1401" }, "geometry": { "type": "Polygon", "coordinates": [ [ [ 101.926666689000058, -0.915277745999958 ], [ 101.896513605000052, -0.844498832999932 ], [ 101.840180462000035, -0.821515546999933 ], [ 101.821238665000067, -0.84980791199996 ], [ 101.777555695000046, -0.788732901999936 ], [ 101.794704874000047, -0.739779193999937 ], [ 101.788381205000064, -0.659519254999964 ], [ 101.827136, -0.619683 ], [ 101.83117, -0.571476 ], [ 101.912277778000032, -0.533555555999953 ], [ 101.913888889000077, -0.39972222199998 ], [ 101.898709722000035, -0.386765277999928 ], [ 101.849861395000062, -0.395276709999962 ], [ 101.81985601100007, -0.344664130999945 ], [ 101.76331811600005, -0.337137829999961 ], [ 101.760253661000036, -0.293158844999937 ], [ 101.666003022000041, -0.236540866999974 ], [ 101.614429008000059, -0.23382192899993 ], [ 101.549045593000073, -0.127793444999952 ], [ 101.518901414000084, -0.099576028999934 ], [ 101.457662145000086, -0.067192882999962 ], [ 101.391408631000047, -0.09964189699997 ], [ 101.349014685000043, -0.104211765999935 ], [ 101.296389473000033, -0.049742823999964 ], [ 101.26907579300007, 0.00969038300002 ], [ 101.242752462000055, -0.056505493999964 ], [ 101.196284645000048, -0.121463580999944 ], [ 101.197203582000043, -0.182247358999973 ], [ 101.152715446000059, -0.238502874999938 ], [ 101.134786900000051, -0.298599832999969 ], [ 101.140413796000075, -0.333205663999934 ], [ 101.100938664000068, -0.379084642999942 ], [ 101.041388889000075, -0.376111110999943 ], [ 101.037006499000086, -0.43984908799996 ], [ 101.066803502000084, -0.503512284999942 ], [ 101.108723980000036, -0.500879312999928 ], [ 101.178494580000063, -0.541655947999971 ], [ 101.203720818000079, -0.586638475999962 ], [ 101.254890743000033, -0.625184241999932 ], [ 101.31450794400007, -0.633442934999948 ], [ 101.357350644000064, -0.657518673999959 ], [ 101.347835724000049, -0.683504738999943 ], [ 101.405555532000051, -0.717499975999942 ], [ 101.494570533000058, -0.791883144999929 ], [ 101.547750607000069, -0.821133286999952 ], [ 101.587582531000066, -0.847296188999962 ], [ 101.647681024000065, -0.82365154799993 ], [ 101.731666691000044, -0.870555596999964 ], [ 101.734542981000061, -0.896487462999971 ], [ 101.698166701000048, -0.935510141999941 ], [ 101.750833344000057, -0.971666696999932 ], [ 101.823579558000063, -0.977620798999965 ], [ 101.907777786000054, -0.952499977999935 ], [ 101.926666689000058, -0.915277745999958 ] ] ] } },
{ "type": "Feature", "properties": { "wilayah": "Pekanbaru", "kode_wilayah": "1471" }, "geometry": { "type": "Polygon", "coordinates": [ [ [ 101.379840629000057, 0.662181052000051 ], [ 101.324649228000055, 0.600370171000066 ], [ 101.35719061900005, 0.557415892000051 ], [ 101.357423340000082, 0.510097403000032 ], [ 101.33224875500008, 0.47661234100002 ], [ 101.367498686000033, 0.441896210000039 ], [ 101.419615157000067, 0.425681115000032 ], [ 101.490967976000036, 0.45001529700005 ], [ 101.547556392000047, 0.43466002100007 ], [ 101.589391951000039, 0.464079681000044 ], [ 101.600944444000049, 0.506277778000026 ], [ 101.592607488000056, 0.607244662000028 ], [ 101.551612400000067, 0.635914891000027 ], [ 101.514256, 0.690346 ], [ 101.48486, 0.642418 ], [ 101.397083333000069, 0.689416667000046 ], [ 101.379840629000057, 0.662181052000051 ] ] ] } },
{ "type": "Feature", "properties": { "wilayah": "Pelalawan", "kode_wilayah": "1404" }, "geometry": { "type": "MultiPolygon", "coordinates": [ [ [ [ 101.849861395000062, -0.395276709999962 ], [ 101.81985601100007, -0.344664130999945 ], [ 101.76331811600005, -0.337137829999961 ], [ 101.760253661000036, -0.293158844999937 ], [ 101.666003022000041, -0.236540866999974 ], [ 101.614429008000059, -0.23382192899993 ], [ 101.549045593000073, -0.127793444999952 ], [ 101.518901414000084, -0.099576028999934 ], [ 101.515135389000079, -0.064031582999974 ], [ 101.54669199600005, -0.043654517999926 ], [ 101.522272617000056, -0.004992220999952 ], [ 101.495611773000064, 0.07655644700003 ], [ 101.514793290000057, 0.109969875000047 ], [ 101.567568300000062, 0.130883611000058 ], [ 101.565626200000054, 0.184735722000028 ], [ 101.584788891000073, 0.202183328000046 ], [ 101.585033964000047, 0.268114001000072 ], [ 101.665060848000053, 0.278251392000072 ], [ 101.666805606000082, 0.316252461000033 ], [ 101.620705791000034, 0.339667431000066 ], [ 101.592141773000037, 0.414204926000025 ], [ 101.589391951000039, 0.464079681000044 ], [ 101.600944444000049, 0.506277778000026 ], [ 101.644312233000051, 0.486035543000071 ], [ 101.651583, 0.459111 ], [ 101.732850753000037, 0.454375682000034 ], [ 101.795241, 0.414791 ], [ 101.849734909000063, 0.461012133000054 ], [ 101.82186099900008, 0.499832990000073 ], [ 101.873334773000067, 0.525098592000063 ], [ 101.885929760000067, 0.449512193000032 ], [ 101.912567499000033, 0.453950960000043 ], [ 101.932267, 0.551989 ], [ 102.250202390000084, 0.583756211000036 ], [ 102.809635, 0.652948 ], [ 102.815007, 0.694293 ], [ 102.899641814000063, 0.724069651000036 ], [ 103.023370509000074, 0.587004350000029 ], [ 103.095794913000077, 0.494771240000034 ], [ 103.107335595000052, 0.455811570000037 ], [ 103.075704501000075, 0.441409250000049 ], [ 103.110491984000078, 0.384982021000042 ], [ 103.175455839000051, 0.427207314000043 ], [ 103.196064913000043, 0.474845258000073 ], [ 103.288119067000082, 0.50717322600002 ], [ 103.347360203000051, 0.538497455000027 ], [ 103.351605611000082, 0.484766556000068 ], [ 103.26911894400007, 0.437991056000044 ], [ 103.211369970000078, 0.36876055700003 ], [ 103.073559333000048, 0.313370417000044 ], [ 102.897922197000071, 0.185932181000055 ], [ 102.787365833000081, 0.118334584000024 ], [ 102.716928913000061, 0.09350472400007 ], [ 102.600916560000087, 0.089277750000065 ], [ 102.533472360000076, 0.06819444000007 ], [ 102.467416680000042, -0.117027809999968 ], [ 102.414666600000032, -0.165527819999966 ], [ 102.214637913000047, -0.16537234599997 ], [ 102.175089120000052, -0.247707989999924 ], [ 102.143220445000054, -0.287596439999959 ], [ 102.08723976400006, -0.288311651999948 ], [ 102.048030458000085, -0.313969437999958 ], [ 101.985324840000033, -0.394491689999938 ], [ 101.898709722000035, -0.386765277999928 ], [ 101.849861395000062, -0.395276709999962 ] ] ], [ [ [ 103.137784859000078, 0.568300170000043 ], [ 103.149502562000066, 0.664838821000046 ], [ 103.205907903000082, 0.702395637000052 ], [ 103.264249490000054, 0.673462309000058 ], [ 103.29538664100005, 0.624481536000076 ], [ 103.299984679000033, 0.552746413000023 ], [ 103.284764291000045, 0.529638147000071 ], [ 103.209150701000056, 0.520784215000049 ], [ 103.164952024000058, 0.500207143000068 ], [ 103.137784859000078, 0.568300170000043 ] ] ], [ [ [ 103.063891999000077, 0.568839270000069 ], [ 103.028055854000058, 0.643496196000058 ], [ 103.038989156000071, 0.659939588000043 ], [ 103.083580850000033, 0.588483310000072 ], [ 103.063891999000077, 0.568839270000069 ] ] ] ] } },
{ "type": "Feature", "properties": { "wilayah": "Rokan Hilir", "kode_wilayah": "1409" }, "geometry": { "type": "Polygon", "coordinates": [ [ [ 100.760451604000082, 2.250910396000052 ], [ 100.803711360000079, 2.29466164400003 ], [ 100.93433040900004, 2.304615974000058 ], [ 101.046310042000073, 2.29156682100006 ], [ 101.065609300000062, 2.232476044000066 ], [ 101.039147280000066, 2.220152760000076 ], [ 101.011138920000064, 2.134222200000067 ], [ 101.016111240000043, 2.080527750000044 ], [ 101.059311240000056, 1.951713900000072 ], [ 101.130555600000037, 1.835583300000053 ], [ 101.199194280000086, 1.754666640000039 ], [ 101.290372200000036, 1.599466680000035 ], [ 101.335388889000058, 1.496138889000065 ], [ 101.317185833000053, 1.474403333000055 ], [ 101.265755372000058, 1.465228310000043 ], [ 101.242699526000081, 1.480921091000027 ], [ 101.177261194000039, 1.451901016000022 ], [ 101.01412266400007, 1.349525046000053 ], [ 100.973445387000083, 1.348765576000062 ], [ 100.975961627000061, 1.378758093000044 ], [ 100.93468788000007, 1.39641129000006 ], [ 100.855350720000047, 1.345111920000022 ], [ 100.827848880000033, 1.316048220000027 ], [ 100.786046040000087, 1.240169310000056 ], [ 100.706220720000033, 1.240986690000057 ], [ 100.664735005000068, 1.291612102000045 ], [ 100.625766751000072, 1.229924844000038 ], [ 100.559328214000061, 1.255188580000038 ], [ 100.452262644000086, 1.33771517200006 ], [ 100.457865878000064, 1.368692080000073 ], [ 100.363658225000052, 1.400944269000036 ], [ 100.340935408000064, 1.437626333000026 ], [ 100.318091996000078, 1.470852017000027 ], [ 100.376575994000063, 1.449790976000031 ], [ 100.42184270000007, 1.485360269000068 ], [ 100.404580318000058, 1.578339382000024 ], [ 100.41670457500004, 1.654795020000051 ], [ 100.380027281000082, 1.681218777000026 ], [ 100.352694373000077, 1.733972222000034 ], [ 100.375945180000087, 1.775692876000051 ], [ 100.289113572000076, 1.798874683000065 ], [ 100.288880825000035, 1.875458192000053 ], [ 100.318097548000082, 1.901756697000053 ], [ 100.320514617000072, 2.037426736000043 ], [ 100.343856406000043, 2.137251703000061 ], [ 100.368851609000046, 2.179467748000036 ], [ 100.362584766000055, 2.247977343000059 ], [ 100.319309992000058, 2.334609963000048 ], [ 100.298969994000061, 2.442579971000043 ], [ 100.321943244000067, 2.547683051000035 ], [ 100.34687542000006, 2.428462512000067 ], [ 100.379305473000045, 2.379157598000063 ], [ 100.395827142000087, 2.320581292000043 ], [ 100.44042614500006, 2.259142257000065 ], [ 100.567708337000056, 2.155726743000059 ], [ 100.722858605000056, 2.094642864000036 ], [ 100.763226669000062, 2.086252556000034 ], [ 100.788905446000058, 2.118780500000071 ], [ 100.784195410616732, 2.140652290999497 ], [ 100.786243193000075, 2.124995483000021 ], [ 100.724945385000069, 2.165968562000046 ], [ 100.70437819700004, 2.248956537000026 ], [ 100.736601109000048, 2.265576273000022 ], [ 100.772157887328348, 2.196550425957632 ], [ 100.760451604000082, 2.250910396000052 ] ] ] } },
{ "type": "Feature", "properties": { "wilayah": "Rokan Hulu", "kode_wilayah": "1407" }, "geometry": { "type": "Polygon", "coordinates": [ [ [ 100.445833309000079, 0.417777776000037 ], [ 100.49388022100004, 0.453623847000074 ], [ 100.517897314000038, 0.43995325700007 ], [ 100.550992930000064, 0.470837295000024 ], [ 100.542420545000084, 0.501925481000058 ], [ 100.575493999000059, 0.525589273000037 ], [ 100.719496873000082, 0.389917872000069 ], [ 100.784502553000038, 0.403816282000037 ], [ 100.841349316000048, 0.39226988300004 ], [ 100.840483273000075, 0.459916953000061 ], [ 100.863704250000069, 0.465447781000023 ], [ 100.863868399000069, 0.528715162000026 ], [ 100.780631288000052, 0.550774387000047 ], [ 100.75786424100005, 0.589467267000032 ], [ 100.657974904000071, 0.606057969000062 ], [ 100.604104456000073, 0.704711042000042 ], [ 100.703631880000046, 0.781463278000047 ], [ 100.744991647000063, 0.869792148000045 ], [ 100.760187772000052, 0.854892008000036 ], [ 100.83493049100008, 0.940970918000062 ], [ 100.99323, 0.968265556000063 ], [ 100.997297808000042, 1.019515677000072 ], [ 100.984027778000041, 1.082027778000054 ], [ 100.988321927000072, 1.298087172000066 ], [ 100.973445387000083, 1.348765576000062 ], [ 100.975961627000061, 1.378758093000044 ], [ 100.93468788000007, 1.39641129000006 ], [ 100.855350720000047, 1.345111920000022 ], [ 100.827848880000033, 1.316048220000027 ], [ 100.786046040000087, 1.240169310000056 ], [ 100.706220720000033, 1.240986690000057 ], [ 100.664735005000068, 1.291612102000045 ], [ 100.625766751000072, 1.229924844000038 ], [ 100.559328214000061, 1.255188580000038 ], [ 100.452262644000086, 1.33771517200006 ], [ 100.457865878000064, 1.368692080000073 ], [ 100.363658225000052, 1.400944269000036 ], [ 100.340935408000064, 1.437626333000026 ], [ 100.300522817000058, 1.417030687000022 ], [ 100.237206488000083, 1.40605737900006 ], [ 100.18052786800007, 1.416845366000075 ], [ 100.052500022000061, 1.377777988000048 ], [ 100.050735576000079, 1.372710866000034 ], [ 100.071667063000064, 1.338889034000033 ], [ 100.078887356000052, 1.346110998000029 ], [ 100.122874790000083, 1.247215468000036 ], [ 100.111102178000067, 1.221546577000026 ], [ 100.170433066000044, 1.122666166000045 ], [ 100.12849533800005, 1.10657618800002 ], [ 100.149277601000051, 1.009853559000021 ], [ 100.151063666000084, 0.935865269000033 ], [ 100.121722333000037, 0.821390721000057 ], [ 100.181194606000076, 0.762333414000068 ], [ 100.213346113000057, 0.736092275000033 ], [ 100.261949125000058, 0.733188719000054 ], [ 100.273689593000086, 0.677137452000068 ], [ 100.220301349000067, 0.662093663000064 ], [ 100.198138937000067, 0.626273261000051 ], [ 100.239532151000049, 0.531559339000069 ], [ 100.224369307000075, 0.502840561000028 ], [ 100.276111111000034, 0.411944444000028 ], [ 100.301388856000074, 0.396388897000065 ], [ 100.345888878000039, 0.380555603000062 ], [ 100.38927222600006, 0.407130675000076 ], [ 100.445833309000079, 0.417777776000037 ] ] ] } },
{ "type": "Feature", "properties": { "wilayah": "Siak", "kode_wilayah": "1405" }, "geometry": { "type": "Polygon", "coordinates": [ [ [ 101.600944444000049, 0.506277778000026 ], [ 101.644312233000051, 0.486035543000071 ], [ 101.651583, 0.459111 ], [ 101.732850753000037, 0.454375682000034 ], [ 101.795241, 0.414791 ], [ 101.849734909000063, 0.461012133000054 ], [ 101.82186099900008, 0.499832990000073 ], [ 101.873334773000067, 0.525098592000063 ], [ 101.885929760000067, 0.449512193000032 ], [ 101.912567499000033, 0.453950960000043 ], [ 101.932267, 0.551989 ], [ 102.250202390000084, 0.583756211000036 ], [ 102.809635, 0.652948 ], [ 102.815007, 0.694293 ], [ 102.899641814000063, 0.724069651000036 ], [ 102.843695242000081, 0.73997911500004 ], [ 102.789328166000075, 0.731855249000034 ], [ 102.675818501000037, 0.755661151000027 ], [ 102.607277701000044, 0.739523719000033 ], [ 102.498153770000044, 0.753880416000072 ], [ 102.403718840000067, 0.815304438000055 ], [ 102.33987853800005, 0.899610644000063 ], [ 102.262279779000039, 0.957022534000032 ], [ 102.229385301000036, 0.995299029000023 ], [ 102.191113340000072, 1.094268021000062 ], [ 102.208872161000045, 1.188722061000021 ], [ 102.168570659000068, 1.228508617000045 ], [ 102.09463, 1.120367 ], [ 102.037591, 1.087397 ], [ 102.020256, 1.032249 ], [ 101.978956290000042, 0.980016163000073 ], [ 101.910111111000049, 1.089083333000076 ], [ 101.887236998000049, 1.176158994000048 ], [ 101.856842, 1.201519 ], [ 101.712750018000065, 1.211777820000066 ], [ 101.598997532000055, 1.034027184000024 ], [ 101.547666697000068, 0.92194448500004 ], [ 101.455583363000073, 0.987145891000068 ], [ 101.455465577000041, 1.004138178000062 ], [ 101.339109820000033, 1.028455004000023 ], [ 101.290965479000079, 1.050055416000021 ], [ 101.23132176200005, 1.006782403000045 ], [ 101.192386940000063, 0.999641018000034 ], [ 101.148805624000033, 1.018626030000064 ], [ 101.078857179000067, 1.00296555500006 ], [ 100.984027778000041, 1.082027778000054 ], [ 100.997297808000042, 1.019515677000072 ], [ 100.99323, 0.968265556000063 ], [ 101.061953010000082, 0.92458308700003 ], [ 101.145142475000057, 0.892683200000022 ], [ 101.208548384000039, 0.854231911000056 ], [ 101.334962663000056, 0.797573150000062 ], [ 101.322599628000034, 0.695952205000026 ], [ 101.379840629000057, 0.662181052000051 ], [ 101.397083333000069, 0.689416667000046 ], [ 101.48486, 0.642418 ], [ 101.514256, 0.690346 ], [ 101.551612400000067, 0.635914891000027 ], [ 101.592607488000056, 0.607244662000028 ], [ 101.600944444000049, 0.506277778000026 ] ] ] } }
]
}
